ONEWEB-0340             
1 49206U 21083W   25279.70662285  .00000035  00000+0  55477-4 0  9995
2 49206  87.9226  25.7859 0001771  97.7642 262.3691 13.18686107196561
ONEWEB-0341             
1 49207U 21083X   25279.71321702  .00000023  00000+0  26625-4 0  9993
2 49207  87.9228  25.7976 0002334 101.8705 258.2689 13.18686360196581
ONEWEB-0342             
1 49208U 21083Y   25279.86863340 -.00000014  00000+0 -66014-4 0  9997
2 49208  87.9230 324.9500 0001837 100.5842 259.5499 13.20773852203349
ONEWEB-0343             
1 49209U 21083Z   25277.73702696 -.00044171  00000+0 -11336+0 0  9992
2 49209  87.9216  26.1742 0001648 116.0362 244.0939 13.18241409196379
ONEWEB-0344             
1 49210U 21083AA  25279.98169711 -.00000259  00000+0 -74371-3 0  9999
2 49210  87.9040  10.5842 0002224 100.5238 259.6141 13.13470465197655
ONEWEB-0345             
1 49211U 21083AB  25279.66853206 -.00000328  00000+0 -93291-3 0  9993
2 49211  87.9046  10.6011 0002221 102.4304 257.7074 13.13469714197629
ONEWEB-0346             
1 49212U 21083AC  25279.71814796 -.00000001  00000+0 -34171-4 0  9992
2 49212  87.9224  25.8043 0001867  80.4072 279.7271 13.18682994196571
ONEWEB-0348             
1 49213U 21083AD  25279.85916481 -.00000295  00000+0 -75849-3 0  9993
2 49213  87.9229 324.9632 0002396  86.3185 273.8222 13.20770657203377
